$$SOE
2461295.500000000, A.D. 2026-Sep-12 00:00:00.0000, 2.609134664748263E+08, -4.696155673713622E+08, -2.980599122474352E+07,
2461302.500000000, A.D. 2026-Sep-19 00:00:00.0000, 2.686834355785680E+08, -4.657468196761185E+08, -2.984059962170199E+07,
2461309.500000000, A.D. 2026-Sep-26 00:00:00.0000, 2.763699062313527E+08, -4.617333259739700E+08, -2.986593178994101E+07,
2461316.500000000, A.D. 2026-Oct-03 00:00:00.0000, 2.839706960409006E+08, -4.575766831264101E+08, -2.988200225139558E+07,
2461323.500000000, A.D. 2026-Oct-10 00:00:00.0000, 2.914836467228534E+08, -4.532785032653453E+08, -2.988882694622061E+07,
2461330.500000000, A.D. 2026-Oct-17 00:00:00.0000, 2.989066234803199E+08, -4.488404137093750E+08, -2.988642321059099E+07,
2461337.500000000, A.D. 2026-Oct-24 00:00:00.0000, 3.062375143896212E+08, -4.442640570030306E+08, -2.987480976393482E+07,
2461344.500000000, A.D. 2026-Oct-31 00:00:00.0000, 3.134742298908210E+08, -4.395510911445248E+08, -2.985400671992642E+07,
2461351.500000000, A.D. 2026-Nov-07 00:00:00.0000, 3.206147027223525E+08, -4.347031899268796E+08, -2.982403564608008E+07,
2461358.500000000, A.D. 2026-Nov-14 00:00:00.0000, 3.276568885011826E+08, -4.297220425045854E+08, -2.978491961760926E+07,
2461365.500000000, A.D. 2026-Nov-21 00:00:00.0000, 3.345987651369796E+08, -4.246093515039339E+08, -2.973668304338583E+07,
2461372.500000000, A.D. 2026-Nov-28 00:00:00.0000, 3.414383300817068E+08, -4.193668326844789E+08, -2.967935141797921E+07,
2461379.500000000, A.D. 2026-Dec-05 00:00:00.0000, 3.481735990339188E+08, -4.139962168065585E+08, -2.961295138507733E+07,
2461386.500000000, A.D. 2026-Dec-12 00:00:00.0000, 3.548026062632098E+08, -4.084992505931026E+08, -2.953751087288117E+07,
2461393.500000000, A.D. 2026-Dec-19 00:00:00.0000, 3.613234046680887E+08, -4.028776967791122E+08, -2.945305912758565E+07,
2461400.500000000, A.D. 2026-Dec-26 00:00:00.0000, 3.677340654251195E+08, -3.971333341166791E+08, -2.935962670258972E+07,
2461407.500000000, A.D. 2027-Jan-02 00:00:00.0000, 3.740326775051079E+08, -3.912679575262739E+08, -2.925724544415101E+07,
2461414.500000000, A.D. 2027-Jan-09 00:00:00.0000, 3.802173471728589E+08, -3.852833783740231E+08, -2.914594848242623E+07,
2461421.500000000, A.D. 2027-Jan-16 00:00:00.0000, 3.862861975049093E+08, -3.791814248660927E+08, -2.902577023033507E+07,
2461428.500000000, A.D. 2027-Jan-23 00:00:00.0000, 3.922373679698138E+08, -3.729639425996003E+08, -2.889674639767765E+07,
2461435.500000000, A.D. 2027-Jan-30 00:00:00.0000, 3.980690142571852E+08, -3.666327953173746E+08, -2.875891404165894E+07,
2461442.500000000, A.D. 2027-Feb-06 00:00:00.0000, 4.037793087791323E+08, -3.601898655260822E+08, -2.861231166507940E+07,
2461449.500000000, A.D. 2027-Feb-13 00:00:00.0000, 4.093664413832438E+08, -3.536370537582442E+08, -2.845697922042674E+07,
2461456.500000000, A.D. 2027-Feb-20 00:00:00.0000, 4.148286179124845E+08, -3.469762772698284E+08, -2.829295786788249E+07,
2461463.500000000, A.D. 2027-Feb-27 00:00:00.0000, 4.201640580066087E+08, -3.402094713869289E+08, -2.812028987810674E+07,
2461470.500000000, A.D. 2027-Mar-06 00:00:00.0000, 4.253709951626154E+08, -3.333385915780348E+08, -2.793901879969808E+07,
2461477.500000000, A.D. 2027-Mar-13 00:00:00.0000, 4.304476774545572E+08, -3.263656142020720E+08, -2.774918957727775E+07,
2461484.500000000, A.D. 2027-Mar-20 00:00:00.0000, 4.353923677840235E+08, -3.192925367669365E+08, -2.755084858501290E+07,
2461491.500000000, A.D. 2027-Mar-27 00:00:00.0000, 4.402033438639800E+08, -3.121213782475454E+08, -2.734404363912280E+07,
2461498.500000000, A.D. 2027-Apr-03 00:00:00.0000, 4.448788981395407E+08, -3.048541795112299E+08, -2.712882401199938E+07,
2461505.500000000, A.D. 2027-Apr-10 00:00:00.0000, 4.494173377075135E+08, -2.974930038276079E+08, -2.690524045175470E+07,
2461512.500000000, A.D. 2027-Apr-17 00:00:00.0000, 4.538169842571061E+08, -2.900399374774947E+08, -2.667334521043560E+07,
2461519.500000000, A.D. 2027-Apr-24 00:00:00.0000, 4.580761741108127E+08, -2.824970905230443E+08, -2.643319209326221E+07,
2461526.500000000, A.D. 2027-May-01 00:00:00.0000, 4.621932586646212E+08, -2.748665977106820E+08, -2.618483655407873E+07,
2461533.500000000, A.D. 2027-May-08 00:00:00.0000, 4.661666055350415E+08, -2.671506187572728E+08, -2.592833580400307E+07,
2461540.500000000, A.D. 2027-May-15 00:00:00.0000, 4.699945989173350E+08, -2.593513370653919E+08, -2.566374871803512E+07,
2461547.500000000, A.D. 2027-May-22 00:00:00.0000, 4.736756375923651E+08, -2.514709594593222E+08, -2.539113560800356E+07,
2461554.500000000, A.D. 2027-May-29 00:00:00.0000, 4.772081339386518E+08, -2.435117184095955E+08, -2.511055828964336E+07,
2461561.500000000, A.D. 2027-Jun-05 00:00:00.0000, 4.805905148357496E+08, -2.354758736137904E+08, -2.482208026897845E+07,
2461568.500000000, A.D. 2027-Jun-12 00:00:00.0000, 4.838212224532072E+08, -2.273657125020232E+08, -2.452576682852180E+07,
2461575.500000000, A.D. 2027-Jun-19 00:00:00.0000, 4.868987145954267E+08, -2.191835506026218E+08, -2.422168505922003E+07,
2461582.500000000, A.D. 2027-Jun-26 00:00:00.0000, 4.898214648827721E+08, -2.109317320295021E+08, -2.390990388495271E+07,
2461589.500000000, A.D. 2027-Jul-03 00:00:00.0000, 4.925879629018956E+08, -2.026126300828688E+08, -2.359049409081674E+07,
2461596.500000000, A.D. 2027-Jul-10 00:00:00.0000, 4.951967143630412E+08, -1.942286479542986E+08, -2.326352835763381E+07,
2461603.500000000, A.D. 2027-Jul-17 00:00:00.0000, 4.976462413016203E+08, -1.857822195748394E+08, -2.292908130895661E+07,
2461610.500000000, A.D. 2027-Jul-24 00:00:00.0000, 4.999350824812467E+08, -1.772758106686253E+08, -2.258722958984064E+07,
2461617.500000000, A.D. 2027-Jul-31 00:00:00.0000, 5.020617944102843E+08, -1.687119197757714E+08, -2.223805199566662E+07,
2461624.500000000, A.D. 2027-Aug-07 00:00:00.0000, 5.040249527725800E+08, -1.600930780917797E+08, -2.188162953829078E+07,
2461631.500000000, A.D. 2027-Aug-14 00:00:00.0000, 5.058231519737534E+08, -1.514218483765780E+08, -2.151804525905302E+07,
2461638.500000000, A.D. 2027-Aug-21 00:00:00.0000, 5.074550034228203E+08, -1.427008262979332E+08, -2.114738412029139E+07,
2461645.500000000, A.D. 2027-Aug-28 00:00:00.0000, 5.089191359804100E+08, -1.339326430055833E+08, -2.076973319177321E+07,
2461652.500000000, A.D. 2027-Sep-04 00:00:00.0000, 5.102141973932849E+08, -1.251199664327100E+08, -2.038518181931340E+07,
2461659.500000000, A.D. 2027-Sep-11 00:00:00.0000, 5.113388553213632E+08, -1.162655019852430E+08, -1.999382170181911E+07,
2461666.500000000, A.D. 2027-Sep-18 00:00:00.0000, 5.122917980918983E+08, -1.073719932682794E+08, -1.959574694233317E+07,
2461673.500000000, A.D. 2027-Sep-25 00:00:00.0000, 5.130717354111883E+08, -9.844222292600361E+07, -1.919105410066238E+07,
2461680.500000000, A.D. 2027-Oct-02 00:00:00.0000, 5.136773991106272E+08, -8.947901356603532E+07, -1.877984225249081E+07,
2461687.500000000, A.D. 2027-Oct-09 00:00:00.0000, 5.141075439516989E+08, -8.048522877112116E+07, -1.836221305768065E+07,
2461694.500000000, A.D. 2027-Oct-16 00:00:00.0000, 5.143609485554499E+08, -7.146377425160033E+07, -1.793827084830975E+07,
2461701.500000000, A.D. 2027-Oct-23 00:00:00.0000, 5.144364167184438E+08, -6.241759914303219E+07, -1.750812276099926E+07,
2461708.500000000, A.D. 2027-Oct-30 00:00:00.0000, 5.143327794915884E+08, -5.334969683694439E+07, -1.707187889820192E+07,
2461715.500000000, A.D. 2027-Nov-06 00:00:00.0000, 5.140488968609046E+08, -4.426310421420479E+07, -1.662965231960019E+07,
2461722.500000000, A.D. 2027-Nov-13 00:00:00.0000, 5.135836570487407E+08, -3.516090135573120E+07, -1.618155885122060E+07,
2461729.500000000, A.D. 2027-Nov-20 00:00:00.0000, 5.129359763399171E+08, -2.604621391575620E+07, -1.572771715711867E+07,
2461736.500000000, A.D. 2027-Nov-27 00:00:00.0000, 5.121048010516227E+08, -1.692221519143407E+07, -1.526824897970348E+07,
2461743.500000000, A.D. 2027-Dec-04 00:00:00.0000, 5.110891096257088E+08, -7.792126972499199E+06, -1.480327928831826E+07,
2461750.500000000, A.D. 2027-Dec-11 00:00:00.0000, 5.098879142956363E+08, 1.340779867151990E+06, -1.433293636424474E+07,
2461757.500000000, A.D. 2027-Dec-18 00:00:00.0000, 5.085002626057087E+08, 1.047318469879686E+07, -1.385735187493331E+07,
2461764.500000000, A.D. 2027-Dec-25 00:00:00.0000, 5.069252389368246E+08, 1.960171638896021E+07, -1.337666095143313E+07,
2461771.500000000, A.D. 2028-Jan-01 00:00:00.0000, 5.051619660819395E+08, 2.872295248704194E+07, -1.289100227146544E+07,
$$EOE